{
    "links": {
        "self": "http://www.neowsapp.com/rest/v1/neo/3843380?api_key=iIulBulltgU6a56xZRHN4H3l9WmuAYTsLGpBGhQ2"
    },
    "id": "3843380",
    "neo_reference_id": "3843380",
    "name": "(2019 OJ2)",
    "designation": "2019 OJ2",
    "nasa_jpl_url": "http://ssd.jpl.nasa.gov/sbdb.cgi?sstr=3843380",
    "absolute_magnitude_h": 25.1,
    "estimated_diameter": {
        "kilometers": {
            "estimated_diameter_min": 0.0253837029,
            "estimated_diameter_max": 0.0567596853
        },
        "meters": {
            "estimated_diameter_min": 25.3837029364,
            "estimated_diameter_max": 56.7596852866
        },
        "miles": {
            "estimated_diameter_min": 0.0157726969,
            "estimated_diameter_max": 0.0352688224
        },
        "feet": {
            "estimated_diameter_min": 83.279867942,
            "estimated_diameter_max": 186.2194458756
        }
    },
    "is_potentially_hazardous_asteroid": false,
    "close_approach_data": [
        {
            "close_approach_date": "1951-04-28",
            "close_approach_date_full": "1951-Apr-28 12:25",
            "epoch_date_close_approach": -589462500000,
            "relative_velocity": {
                "kilometers_per_second": "9.4239901902",
                "kilometers_per_hour": "33926.3646848712",
                "miles_per_hour": "21080.5236565523"
            },
            "miss_distance": {
                "astronomical": "0.0888291492",
                "lunar": "34.5545390388",
                "kilometers": "13288651.514232204",
                "miles": "8257185.1601802552"
            },
            "orbiting_body": "Earth"
        },
        {
            "close_approach_date": "2019-07-18",
            "close_approach_date_full": "2019-Jul-18 09:22",
            "epoch_date_close_approach": 1563441720000,
            "relative_velocity": {
                "kilometers_per_second": "8.906441163",
                "kilometers_per_hour": "32063.1881868159",
                "miles_per_hour": "19922.8182375246"
            },
            "miss_distance": {
                "astronomical": "0.0295790051",
                "lunar": "11.5062329839",
                "kilometers": "4424956.159679137",
                "miles": "2749540.2597486106"
            },
            "orbiting_body": "Earth"
        }
    ],
    "orbital_data": {
        "orbit_id": "4",
        "orbit_determination_date": "2020-01-05 05:54:13",
        "first_observation_date": "2019-07-26",
        "last_observation_date": "2019-08-05",
        "data_arc_in_days": 10,
        "observations_used": 15,
        "orbit_uncertainty": "8",
        "minimum_orbit_intersection": ".0285884",
        "jupiter_tisserand_invariant": "4.042",
        "epoch_osculation": "2458692.5",
        "eccentricity": ".4420519932538791",
        "semi_major_axis": "1.727692590094871",
        "inclination": "4.491523859033682",
        "ascending_node_longitude": "133.5407192575229",
        "orbital_period": "829.4651288582629",
        "perihelion_distance": ".9639626369134761",
        "perihelion_argument": "123.6821395631283",
        "aphelion_distance": "2.491422543276265",
        "perihelion_time": "2458651.468141868449",
        "mean_anomaly": "17.80842667574332",
        "mean_motion": ".4340146287952221",
        "equinox": "J2000",
        "orbit_class": {
            "orbit_class_type": "APO",
            "orbit_class_description": "Near-Earth asteroid orbits which cross the Earth’s orbit similar to that of 1862 Apollo",
            "orbit_class_range": "a (semi-major axis) > 1.0 AU; q (perihelion) < 1.017 AU"
        }
    },
    "is_sentry_object": false
}